[{"OBJECT_NAME":"VSP RF C1","OBJECT_ID":"2024-043AQ","EPOCH":"2026-03-09T21:56:05.358624","MEAN_MOTION":15.29409663,"ECCENTRICITY":0.00093965,"INCLINATION":97.5441,"RA_OF_ASC_NODE":205.1792,"ARG_OF_PERICENTER":219.6172,"MEAN_ANOMALY":140.4382,"EPHEMERIS_TYPE":0,"CLASSIFICATION_TYPE":"U","NORAD_CAT_ID":59136,"ELEMENT_SET_NO":999,"REV_AT_EPOCH":11190,"BSTAR":0.00026222052,"MEAN_MOTION_DOT":7.409e-5,"MEAN_MOTION_DDOT":0},{"OBJECT_NAME":"STARLINK-36000","OBJECT_ID":"2025-278S","EPOCH":"2026-03-09T23:18:12.174336","MEAN_MOTION":15.27622346,"ECCENTRICITY":0.00026836,"INCLINATION":43.0036,"RA_OF_ASC_NODE":112.6446,"ARG_OF_PERICENTER":306.3102,"MEAN_ANOMALY":53.7501,"EPHEMERIS_TYPE":0,"CLASSIFICATION_TYPE":"U","NORAD_CAT_ID":66807,"ELEMENT_SET_NO":999,"REV_AT_EPOCH":1525,"BSTAR":0.0013340565,"MEAN_MOTION_DOT":0.0003668,"MEAN_MOTION_DDOT":0}]
